[{"OBJECT_NAME":"STARLINK-34705","OBJECT_ID":"2025-158A","EPOCH":"2026-03-07T15:15:28.205568","MEAN_MOTION":15.05657943,"ECCENTRICITY":0.00020624,"INCLINATION":97.6026,"RA_OF_ASC_NODE":292.0039,"ARG_OF_PERICENTER":66.6479,"MEAN_ANOMALY":293.4964,"EPHEMERIS_TYPE":0,"CLASSIFICATION_TYPE":"U","NORAD_CAT_ID":64932,"ELEMENT_SET_NO":999,"REV_AT_EPOCH":3504,"BSTAR":0.00035611796,"MEAN_MOTION_DOT":5.083e-5,"MEAN_MOTION_DDOT":0},{"OBJECT_NAME":"STARLINK-34737","OBJECT_ID":"2025-158B","EPOCH":"2026-03-07T14:59:31.533792","MEAN_MOTION":15.05659408,"ECCENTRICITY":0.00022604,"INCLINATION":97.6017,"RA_OF_ASC_NODE":292.02,"ARG_OF_PERICENTER":68.96,"MEAN_ANOMALY":291.1868,"EPHEMERIS_TYPE":0,"CLASSIFICATION_TYPE":"U","NORAD_CAT_ID":64933,"ELEMENT_SET_NO":999,"REV_AT_EPOCH":3504,"BSTAR":0.00040136511,"MEAN_MOTION_DOT":5.737e-5,"MEAN_MOTION_DDOT":0},{"OBJECT_NAME":"STARLINK-34775","OBJECT_ID":"2025-158C","EPOCH":"2026-03-07T14:55:32.410560","MEAN_MOTION":15.05655486,"ECCENTRICITY":0.00022621,"INCLINATION":97.6017,"RA_OF_ASC_NODE":292.0318,"ARG_OF_PERICENTER":86.5917,"MEAN_ANOMALY":273.5569,"EPHEMERIS_TYPE":0,"CLASSIFICATION_TYPE":"U","NORAD_CAT_ID":64934,"ELEMENT_SET_NO":999,"REV_AT_EPOCH":3504,"BSTAR":0.00035621786,"MEAN_MOTION_DOT":5.084e-5,"MEAN_MOTION_DDOT":0},{"OBJECT_NAME":"STARLINK-34726","OBJECT_ID":"2025-158D","EPOCH":"2026-03-07T14:23:39.095520","MEAN_MOTION":15.05646874,"ECCENTRICITY":0.00021943,"INCLINATION":97.6017,"RA_OF_ASC_NODE":292.0639,"ARG_OF_PERICENTER":73.6302,"MEAN_ANOMALY":286.5166,"EPHEMERIS_TYPE":0,"CLASSIFICATION_TYPE":"U","NORAD_CAT_ID":64935,"ELEMENT_SET_NO":999,"REV_AT_EPOCH":3504,"BSTAR":0.00053806519,"MEAN_MOTION_DOT":7.711e-5,"MEAN_MOTION_DDOT":0},{"OBJECT_NAME":"STARLINK-34529","OBJECT_ID":"2025-158E","EPOCH":"2026-03-07T15:07:29.954784","MEAN_MOTION":15.05654957,"ECCENTRICITY":0.00019304,"INCLINATION":97.6023,"RA_OF_ASC_NODE":292.0208,"ARG_OF_PERICENTER":70.8948,"MEAN_ANOMALY":289.2487,"EPHEMERIS_TYPE":0,"CLASSIFICATION_TYPE":"U","NORAD_CAT_ID":64936,"ELEMENT_SET_NO":999,"REV_AT_EPOCH":3504,"BSTAR":0.00035537561,"MEAN_MOTION_DOT":5.071e-5,"MEAN_MOTION_DDOT":0},{"OBJECT_NAME":"STARLINK-34743","OBJECT_ID":"2025-158F","EPOCH":"2026-03-07T14:51:32.241024","MEAN_MOTION":15.05680126,"ECCENTRICITY":0.00026738,"INCLINATION":97.6015,"RA_OF_ASC_NODE":292.0373,"ARG_OF_PERICENTER":67.5987,"MEAN_ANOMALY":292.5523,"EPHEMERIS_TYPE":0,"CLASSIFICATION_TYPE":"U","NORAD_CAT_ID":64937,"ELEMENT_SET_NO":999,"REV_AT_EPOCH":3504,"BSTAR":0.00082556299,"MEAN_MOTION_DOT":0.00011881,"MEAN_MOTION_DDOT":0},{"OBJECT_NAME":"STARLINK-34730","OBJECT_ID":"2025-158G","EPOCH":"2026-03-07T13:55:44.087232","MEAN_MOTION":15.05661512,"ECCENTRICITY":0.00019941,"INCLINATION":97.602,"RA_OF_ASC_NODE":292.0799,"ARG_OF_PERICENTER":82.7814,"MEAN_ANOMALY":277.3639,"EPHEMERIS_TYPE":0,"CLASSIFICATION_TYPE":"U","NORAD_CAT_ID":64938,"ELEMENT_SET_NO":999,"REV_AT_EPOCH":3504,"BSTAR":0.00046457719,"MEAN_MOTION_DOT":6.651e-5,"MEAN_MOTION_DDOT":0},{"OBJECT_NAME":"STARLINK-34714","OBJECT_ID":"2025-158H","EPOCH":"2026-03-07T13:59:44.345760","MEAN_MOTION":15.05642156,"ECCENTRICITY":0.00014532,"INCLINATION":97.6017,"RA_OF_ASC_NODE":292.0848,"ARG_OF_PERICENTER":63.8126,"MEAN_ANOMALY":296.325,"EPHEMERIS_TYPE":0,"CLASSIFICATION_TYPE":"U","NORAD_CAT_ID":64939,"ELEMENT_SET_NO":999,"REV_AT_EPOCH":3488,"BSTAR":0.0005498087,"MEAN_MOTION_DOT":7.88e-5,"MEAN_MOTION_DDOT":0},{"OBJECT_NAME":"STARLINK-34755","OBJECT_ID":"2025-158J","EPOCH":"2026-03-07T14:46:53.290848","MEAN_MOTION":15.01266498,"ECCENTRICITY":0.00019297,"INCLINATION":97.6006,"RA_OF_ASC_NODE":292.6895,"ARG_OF_PERICENTER":41.4902,"MEAN_ANOMALY":318.6469,"EPHEMERIS_TYPE":0,"CLASSIFICATION_TYPE":"U","NORAD_CAT_ID":64940,"ELEMENT_SET_NO":999,"REV_AT_EPOCH":3508,"BSTAR":0.00025585317,"MEAN_MOTION_DOT":3.23e-5,"MEAN_MOTION_DDOT":0},{"OBJECT_NAME":"STARLINK-34740","OBJECT_ID":"2025-158K","EPOCH":"2026-03-07T14:19:39.607680","MEAN_MOTION":15.05658015,"ECCENTRICITY":0.00027041,"INCLINATION":97.6016,"RA_OF_ASC_NODE":292.0656,"ARG_OF_PERICENTER":84.844,"MEAN_ANOMALY":275.3095,"EPHEMERIS_TYPE":0,"CLASSIFICATION_TYPE":"U","NORAD_CAT_ID":64941,"ELEMENT_SET_NO":999,"REV_AT_EPOCH":3498,"BSTAR":0.00038549475,"MEAN_MOTION_DOT":5.507e-5,"MEAN_MOTION_DDOT":0},{"OBJECT_NAME":"STARLINK-34742","OBJECT_ID":"2025-158L","EPOCH":"2026-03-07T14:11:40.992288","MEAN_MOTION":15.05659801,"ECCENTRICITY":0.00017143,"INCLINATION":97.6016,"RA_OF_ASC_NODE":292.0658,"ARG_OF_PERICENTER":65.8289,"MEAN_ANOMALY":294.3117,"EPHEMERIS_TYPE":0,"CLASSIFICATION_TYPE":"U","NORAD_CAT_ID":64942,"ELEMENT_SET_NO":999,"REV_AT_EPOCH":3504,"BSTAR":0.00042868226,"MEAN_MOTION_DOT":6.132e-5,"MEAN_MOTION_DDOT":0},{"OBJECT_NAME":"STARLINK-34719","OBJECT_ID":"2025-158M","EPOCH":"2026-03-07T14:27:38.124576","MEAN_MOTION":15.05649342,"ECCENTRICITY":0.00024132,"INCLINATION":97.602,"RA_OF_ASC_NODE":292.0593,"ARG_OF_PERICENTER":85.7472,"MEAN_ANOMALY":274.4031,"EPHEMERIS_TYPE":0,"CLASSIFICATION_TYPE":"U","NORAD_CAT_ID":64943,"ELEMENT_SET_NO":999,"REV_AT_EPOCH":3504,"BSTAR":0.00056068033,"MEAN_MOTION_DOT":8.039e-5,"MEAN_MOTION_DDOT":0},{"OBJECT_NAME":"STARLINK-34373","OBJECT_ID":"2025-158N","EPOCH":"2026-03-07T15:11:29.297472","MEAN_MOTION":15.05655359,"ECCENTRICITY":0.00028688,"INCLINATION":97.6028,"RA_OF_ASC_NODE":292.0184,"ARG_OF_PERICENTER":78.2519,"MEAN_ANOMALY":281.903,"EPHEMERIS_TYPE":0,"CLASSIFICATION_TYPE":"U","NORAD_CAT_ID":64944,"ELEMENT_SET_NO":999,"REV_AT_EPOCH":3504,"BSTAR":0.00030720352,"MEAN_MOTION_DOT":4.375e-5,"MEAN_MOTION_DDOT":0},{"OBJECT_NAME":"STARLINK-34758","OBJECT_ID":"2025-158P","EPOCH":"2026-03-07T14:39:35.621280","MEAN_MOTION":15.0565865,"ECCENTRICITY":0.00025232,"INCLINATION":97.6022,"RA_OF_ASC_NODE":292.0488,"ARG_OF_PERICENTER":78.4586,"MEAN_ANOMALY":281.6924,"EPHEMERIS_TYPE":0,"CLASSIFICATION_TYPE":"U","NORAD_CAT_ID":64945,"ELEMENT_SET_NO":999,"REV_AT_EPOCH":3504,"BSTAR":0.00044416513,"MEAN_MOTION_DOT":6.356e-5,"MEAN_MOTION_DDOT":0},{"OBJECT_NAME":"STARLINK-34753","OBJECT_ID":"2025-158Q","EPOCH":"2026-03-07T14:31:35.953536","MEAN_MOTION":15.05643651,"ECCENTRICITY":0.00026938,"INCLINATION":97.6019,"RA_OF_ASC_NODE":292.0517,"ARG_OF_PERICENTER":87.9415,"MEAN_ANOMALY":272.2121,"EPHEMERIS_TYPE":0,"CLASSIFICATION_TYPE":"U","NORAD_CAT_ID":64946,"ELEMENT_SET_NO":999,"REV_AT_EPOCH":3504,"BSTAR":-5.6276351e-5,"MEAN_MOTION_DOT":-8.73e-6,"MEAN_MOTION_DDOT":0},{"OBJECT_NAME":"STARLINK-34747","OBJECT_ID":"2025-158R","EPOCH":"2026-03-07T14:47:35.712384","MEAN_MOTION":15.05641424,"ECCENTRICITY":0.00022369,"INCLINATION":97.6019,"RA_OF_ASC_NODE":292.0419,"ARG_OF_PERICENTER":81.6863,"MEAN_ANOMALY":278.4617,"EPHEMERIS_TYPE":0,"CLASSIFICATION_TYPE":"U","NORAD_CAT_ID":64947,"ELEMENT_SET_NO":999,"REV_AT_EPOCH":3504,"BSTAR":0.00052769866,"MEAN_MOTION_DOT":7.56e-5,"MEAN_MOTION_DDOT":0}]
