STARLINK-34705          
1 64932U 25158A   26066.63574312  .00005083  00000+0  35612-3 0  9991
2 64932  97.6026 292.0039 0002062  66.6479 293.4964 15.05657943 35043
STARLINK-34737          
1 64933U 25158B   26066.62467053  .00005737  00000+0  40137-3 0  9998
2 64933  97.6017 292.0200 0002260  68.9600 291.1868 15.05659408 35041
STARLINK-34775          
1 64934U 25158C   26066.62190290  .00005084  00000+0  35622-3 0  9993
2 64934  97.6017 292.0318 0002262  86.5917 273.5569 15.05655486 35045
STARLINK-34726          
1 64935U 25158D   26066.59975805  .00007711  00000+0  53807-3 0  9997
2 64935  97.6017 292.0639 0002194  73.6302 286.5166 15.05646874 35049
STARLINK-34529          
1 64936U 25158E   26066.63020781  .00005071  00000+0  35538-3 0  9995
2 64936  97.6023 292.0208 0001930  70.8948 289.2487 15.05654957 35048
STARLINK-34743          
1 64937U 25158F   26066.61912316  .00011881  00000+0  82556-3 0  9996
2 64937  97.6015 292.0373 0002673  67.5987 292.5523 15.05680126 35049
STARLINK-34730          
1 64938U 25158G   26066.58037138  .00006651  00000+0  46458-3 0  9993
2 64938  97.6020 292.0799 0001994  82.7814 277.3639 15.05661512 35048
STARLINK-34714          
1 64939U 25158H   26066.58315215  .00007880  00000+0  54981-3 0  9994
2 64939  97.6017 292.0848 0001453  63.8126 296.3250 15.05642156 34880
STARLINK-34755          
1 64940U 25158J   26066.61589457  .00003230  00000+0  25585-3 0  9994
2 64940  97.6006 292.6895 0001929  41.4902 318.6469 15.01266498 35080
STARLINK-34740          
1 64941U 25158K   26066.59698620  .00005507  00000+0  38549-3 0  9998
2 64941  97.6016 292.0656 0002704  84.8440 275.3095 15.05658015 34987
STARLINK-34742          
1 64942U 25158L   26066.59144667  .00006132  00000+0  42868-3 0  9990
2 64942  97.6016 292.0658 0001714  65.8289 294.3117 15.05659801 35048
STARLINK-34719          
1 64943U 25158M   26066.60252459  .00008039  00000+0  56068-3 0  9997
2 64943  97.6020 292.0593 0002413  85.7472 274.4031 15.05649342 35047
STARLINK-34373          
1 64944U 25158N   26066.63297798  .00004375  00000+0  30720-3 0  9992
2 64944  97.6028 292.0184 0002868  78.2519 281.9030 15.05655359 35042
STARLINK-34758          
1 64945U 25158P   26066.61082895  .00006356  00000+0  44417-3 0  9990
2 64945  97.6022 292.0488 0002523  78.4586 281.6924 15.05658650 35044
STARLINK-34753          
1 64946U 25158Q   26066.60527724 -.00000873  00000+0 -56276-4 0  9992
2 64946  97.6019 292.0517 0002693  87.9415 272.2121 15.05643651 35048
STARLINK-34747          
1 64947U 25158R   26066.61638556  .00007560  00000+0  52770-3 0  9992
2 64947  97.6019 292.0419 0002236  81.6863 278.4617 15.05641424 35045
